<div id="readme" class="md" data-path="README.md"><article class="markdown-body entry-content container-lg" itemprop="text"><h1 dir="auto"><a id="user-content-keplertoolsjl" class="anchor" aria-hidden="true" href="#keplertoolsjl"><svg class="octicon octicon-link" viewBox="0 0 16 16" version="1.1" width="16" height="16" aria-hidden="true"><path d="m7.775 3.275 1.25-1.25a3.5 3.5 0 1 1 4.95 4.95l-2.5 2.5a3.5 3.5 0 0 1-4.95 0 .751.751 0 0 1 .018-1.042.751.751 0 0 1 1.042-.018 1.998 1.998 0 0 0 2.83 0l2.5-2.5a2.002 2.002 0 0 0-2.83-2.83l-1.25 1.25a.751.751 0 0 1-1.042-.018.751.751 0 0 1-.018-1.042Zm-4.69 9.64a1.998 1.998 0 0 0 2.83 0l1.25-1.25a.751.751 0 0 1 1.042.018.751.751 0 0 1 .018 1.042l-1.25 1.25a3.5 3.5 0 1 1-4.95-4.95l2.5-2.5a3.5 3.5 0 0 1 4.95 0 .751.751 0 0 1-.018 1.042.751.751 0 0 1-1.042.018 1.998 1.998 0 0 0-2.83 0l-2.5 2.5a1.998 1.998 0 0 0 0 2.83Z"></path></svg></a>KeplerTools.jl</h1>
<p dir="auto">Tools for 2-body orbit propagation, Lambert problem solving, and ejection/insertion trajectory optimization. Put together as a project to get comfortable with <a href="https://julialang.org/" rel="nofollow">Julia</a>. Intended for use to plan simple missions in Kerbal Space Program.</p>
<h2 dir="auto"><a id="user-content-orbit-propagation" class="anchor" aria-hidden="true" href="#orbit-propagation"><svg class="octicon octicon-link" viewBox="0 0 16 16" version="1.1" width="16" height="16" aria-hidden="true"><path d="m7.775 3.275 1.25-1.25a3.5 3.5 0 1 1 4.95 4.95l-2.5 2.5a3.5 3.5 0 0 1-4.95 0 .751.751 0 0 1 .018-1.042.751.751 0 0 1 1.042-.018 1.998 1.998 0 0 0 2.83 0l2.5-2.5a2.002 2.002 0 0 0-2.83-2.83l-1.25 1.25a.751.751 0 0 1-1.042-.018.751.751 0 0 1-.018-1.042Zm-4.69 9.64a1.998 1.998 0 0 0 2.83 0l1.25-1.25a.751.751 0 0 1 1.042.018.751.751 0 0 1 .018 1.042l-1.25 1.25a3.5 3.5 0 1 1-4.95-4.95l2.5-2.5a3.5 3.5 0 0 1 4.95 0 .751.751 0 0 1-.018 1.042.751.751 0 0 1-1.042.018 1.998 1.998 0 0 0-2.83 0l-2.5 2.5a1.998 1.998 0 0 0 0 2.83Z"></path></svg></a>Orbit Propagation</h2>
<p dir="auto">Get the position, velocity, or both (i.e. a state vector) for an orbit as a function of either true anomaly or time:</p>
<div class="highlight highlight-source-julia notranslate position-relative overflow-auto" dir="auto" data-snippet-clipboard-copy-content="julia&gt; using KeplerTools

julia&gt; include(joinpath(dirname(pathof(KeplerTools)), &quot;..&quot;, &quot;data&quot;, &quot;kerbol_system.jl&quot;));

julia&gt; position, velocity = state_vector(3.14, kerbin.orbit)
([-1.3599823007697136e10, 2.1659825247473374e7, 0.0], [-14.786987156243779, -9284.488948751467, 0.0])

julia&gt; position, velocity = time_state_vector(0, kerbin.orbit)
([-1.3599823007697136e10, 2.1659825247473374e7, 0.0], [-14.786987156243779, -9284.488948751467, 0.0])"><pre>julia<span class="pl-k">&gt;</span> <span class="pl-k">using</span> KeplerTools

julia<span class="pl-k">&gt;</span> <span class="pl-c1">include</span>(<span class="pl-c1">joinpath</span>(<span class="pl-c1">dirname</span>(<span class="pl-c1">pathof</span>(KeplerTools)), <span class="pl-s"><span class="pl-pds">"</span>..<span class="pl-pds">"</span></span>, <span class="pl-s"><span class="pl-pds">"</span>data<span class="pl-pds">"</span></span>, <span class="pl-s"><span class="pl-pds">"</span>kerbol_system.jl<span class="pl-pds">"</span></span>));

julia<span class="pl-k">&gt;</span> position, velocity <span class="pl-k">=</span> <span class="pl-c1">state_vector</span>(<span class="pl-c1">3.14</span>, kerbin<span class="pl-k">.</span>orbit)
([<span class="pl-k">-</span><span class="pl-c1">1.3599823007697136e10</span>, <span class="pl-c1">2.1659825247473374e7</span>, <span class="pl-c1">0.0</span>], [<span class="pl-k">-</span><span class="pl-c1">14.786987156243779</span>, <span class="pl-k">-</span><span class="pl-c1">9284.488948751467</span>, <span class="pl-c1">0.0</span>])

julia<span class="pl-k">&gt;</span> position, velocity <span class="pl-k">=</span> <span class="pl-c1">time_state_vector</span>(<span class="pl-c1">0</span>, kerbin<span class="pl-k">.</span>orbit)
([<span class="pl-k">-</span><span class="pl-c1">1.3599823007697136e10</span>, <span class="pl-c1">2.1659825247473374e7</span>, <span class="pl-c1">0.0</span>], [<span class="pl-k">-</span><span class="pl-c1">14.786987156243779</span>, <span class="pl-k">-</span><span class="pl-c1">9284.488948751467</span>, <span class="pl-c1">0.0</span>])</pre></div>
<h2 dir="auto"><a id="user-content-lambert-solver" class="anchor" aria-hidden="true" href="#lambert-solver"><svg class="octicon octicon-link" viewBox="0 0 16 16" version="1.1" width="16" height="16" aria-hidden="true"><path d="m7.775 3.275 1.25-1.25a3.5 3.5 0 1 1 4.95 4.95l-2.5 2.5a3.5 3.5 0 0 1-4.95 0 .751.751 0 0 1 .018-1.042.751.751 0 0 1 1.042-.018 1.998 1.998 0 0 0 2.83 0l2.5-2.5a2.002 2.002 0 0 0-2.83-2.83l-1.25 1.25a.751.751 0 0 1-1.042-.018.751.751 0 0 1-.018-1.042Zm-4.69 9.64a1.998 1.998 0 0 0 2.83 0l1.25-1.25a.751.751 0 0 1 1.042.018.751.751 0 0 1 .018 1.042l-1.25 1.25a3.5 3.5 0 1 1-4.95-4.95l2.5-2.5a3.5 3.5 0 0 1 4.95 0 .751.751 0 0 1-.018 1.042.751.751 0 0 1-1.042.018 1.998 1.998 0 0 0-2.83 0l-2.5 2.5a1.998 1.998 0 0 0 0 2.83Z"></path></svg></a>Lambert Solver</h2>
<p dir="auto">Solve Lambert's problem given two orbits, a start time, and an end time.</p>
<div class="highlight highlight-source-julia notranslate position-relative overflow-auto" dir="auto" data-snippet-clipboard-copy-content="julia&gt; starttime = 5091522.; 

julia&gt; endtime = starttime + 5588238.;

julia&gt; torb = p_lambert(kerbin.orbit, duna.orbit, starttime, endtime)
Orbit above Kerbol:
  semi-major axis:              1.6833240192579033e10 m
  eccentricity:                 0.1926164653078007
  inclination:                  0.1434866354451145°
  RA of ascending node:         19.065485668978525°
  argument of periapsis:        354.82322931318316°
  mean anomaly at epoch:        3.4404814375472044°
  epoch:                        5.091522e6 s"><pre>julia<span class="pl-k">&gt;</span> starttime <span class="pl-k">=</span> <span class="pl-c1">5091522.</span>; 

julia<span class="pl-k">&gt;</span> endtime <span class="pl-k">=</span> starttime <span class="pl-k">+</span> <span class="pl-c1">5588238.</span>;

julia<span class="pl-k">&gt;</span> torb <span class="pl-k">=</span> <span class="pl-c1">p_lambert</span>(kerbin<span class="pl-k">.</span>orbit, duna<span class="pl-k">.</span>orbit, starttime, endtime)
Orbit above Kerbol<span class="pl-k">:</span>
  semi<span class="pl-k">-</span>major axis<span class="pl-k">:</span>              <span class="pl-c1">1.6833240192579033e10</span> m
  eccentricity<span class="pl-k">:</span>                 <span class="pl-c1">0.1926164653078007</span>
  inclination<span class="pl-k">:</span>                  <span class="pl-c1">0.1434866354451145</span>°
  RA of ascending node<span class="pl-k">:</span>         <span class="pl-c1">19.065485668978525</span>°
  argument of periapsis<span class="pl-k">:</span>        <span class="pl-c1">354.82322931318316</span>°
  mean anomaly at epoch<span class="pl-k">:</span>        <span class="pl-c1">3.4404814375472044</span>°
  epoch<span class="pl-k">:</span>                        <span class="pl-c1">5.091522e6</span> s</pre></div>
<h2 dir="auto"><a id="user-content-ejectioninsertion-optimization" class="anchor" aria-hidden="true" href="#ejectioninsertion-optimization"><svg class="octicon octicon-link" viewBox="0 0 16 16" version="1.1" width="16" height="16" aria-hidden="true"><path d="m7.775 3.275 1.25-1.25a3.5 3.5 0 1 1 4.95 4.95l-2.5 2.5a3.5 3.5 0 0 1-4.95 0 .751.751 0 0 1 .018-1.042.751.751 0 0 1 1.042-.018 1.998 1.998 0 0 0 2.83 0l2.5-2.5a2.002 2.002 0 0 0-2.83-2.83l-1.25 1.25a.751.751 0 0 1-1.042-.018.751.751 0 0 1-.018-1.042Zm-4.69 9.64a1.998 1.998 0 0 0 2.83 0l1.25-1.25a.751.751 0 0 1 1.042.018.751.751 0 0 1 .018 1.042l-1.25 1.25a3.5 3.5 0 1 1-4.95-4.95l2.5-2.5a3.5 3.5 0 0 1 4.95 0 .751.751 0 0 1-.018 1.042.751.751 0 0 1-1.042.018 1.998 1.998 0 0 0-2.83 0l-2.5 2.5a1.998 1.998 0 0 0 0 2.83Z"></path></svg></a>Ejection/Insertion Optimization</h2>
<p dir="auto">Obtain an optimal ejection or insertion trajectory given a parking orbit and a relative velocity at escape from/encounter with the sphere of influence.</p>
<div class="highlight highlight-source-julia notranslate position-relative overflow-auto" dir="auto" data-snippet-clipboard-copy-content="julia&gt; parking_orb = Orbit(kerbin.eqradius + 100000, kerbin)
Orbit above Kerbin:
  semi-major axis:              700000.0 m
  eccentricity:                 0.0
  inclination:                  0.0°
  RA of ascending node:         0.0°
  argument of periapsis:        0.0°
  mean anomaly at epoch:        0.0°
  epoch:                        0.0 s

julia&gt; v̄_ejection = time_orbital_velocity(starttime, torb) - time_orbital_velocity(starttime, kerbin.orbit)
3-element StaticArrays.SVector{3, Float64} with indices SOneTo(3):
 -138.4274524214611
  853.0248945699786
   25.38365880099945

julia&gt; ejection_orb = departure_orbit(parking_orb, v̄_ejection, starttime)[1]
Orbit above Kerbin:
  semi-major axis:              -5.322430914063159e6 m
  eccentricity:                 1.1315005119137438
  inclination:                  3.4432174905445865°
  RA of ascending node:         308.4387644550581°
  argument of periapsis:        358.686708883049°
  mean anomaly at epoch:        0.04289926269835575°
  epoch:                        5.004695828269423e6 s

julia&gt; target_orb = Orbit(duna.eqradius + 100000, duna)
Orbit above Duna:
  semi-major axis:              420000.0 m
  eccentricity:                 0.0
  inclination:                  0.0°
  RA of ascending node:         0.0°
  argument of periapsis:        0.0°
  mean anomaly at epoch:        0.0°
  epoch:                        0.0 s

